COMMENT,ORIGINATOR,NORAD_CAT_ID,OBJECT_NAME,OBJECT_TYPE,CLASSIFICATION_TYPE,INTLDES,EPOCH,EPOCH_MICROSECONDS,MEAN_MOTION,ECCENTRICITY,INCLINATION,RA_OF_ASC_NODE,ARG_OF_PERICENTER,MEAN_ANOMALY,EPHEMERIS_TYPE,ELEMENT_SET_NO,REV_AT_EPOCH,BSTAR,MEAN_MOTION_DOT,MEAN_MOTION_DDOT,FILE,TLE_LINE0,TLE_LINE1,TLE_LINE2,OBJECT_ID,OBJECT_NUMBER,SEMIMAJOR_AXIS,PERIOD,APOGEE,PERIGEE,DECAYED
"GENERATED VIA SPACETRACK.ORG API","18 SPCS","48893","SPACEBEE-106","PAYLOAD","U","21059Q","2022-12-08 07:58:54","993216","15.19573103","0.0007954","97.5771","111.8845","216.7988","143.2702","0","999","8030","0.0007847","0.00016662","0","3684925","0 SPACEBEE-106","1 48893U 21059Q   22342.33258094  .00016662  00000-0  78470-3 0  9996","2 48893  97.5771 111.8845 0007954 216.7988 143.2702 15.19573103 80309","2021-059Q","48893","6885.267","94.763","512.608","501.655","0"
"GENERATED VIA SPACETRACK.ORG API","18 SPCS","48893","SPACEBEE-106","PAYLOAD","U","21059Q","2022-12-08 22:12:19","509984","15.1959209","0.0007985","97.5772","112.4793","214.837","145.2343","0","999","8039","0.00072168","0.00015324","0","3685000","0 SPACEBEE-106","1 48893U 21059Q   22342.92522581  .00015324  00000-0  72168-3 0  9998","2 48893  97.5772 112.4793 0007985 214.8370 145.2343 15.19592090 80395","2021-059Q","48893","6885.209","94.762","512.572","501.577","0"
"GENERATED VIA SPACETRACK.ORG API","18 SPCS","48893","SPACEBEE-106","PAYLOAD","U","21059Q","2022-12-08 22:12:19","509984","15.1959209","0.0007985","97.5772","112.4793","214.837","145.2343","0","999","8039","0.00072168","0.00015324","0","3685263","0 SPACEBEE-106","1 48893U 21059Q   22342.92522581  .00015324  00000-0  72168-3 0  9998","2 48893  97.5772 112.4793 0007985 214.8370 145.2343 15.19592090 80395","2021-059Q","48893","6885.209","94.762","512.572","501.577","0"
"GENERATED VIA SPACETRACK.ORG API","18 SPCS","48893","SPACEBEE-106","PAYLOAD","U","21059Q","2022-12-10 07:23:34","154016","15.19637096","0.0007993","97.5777","113.8673","209.5731","150.5052","0","999","8060","0.00068177","0.0001449","0","3687663","0 SPACEBEE-106","1 48893U 21059Q   22344.30803419  .00014490  00000-0  68177-3 0  9992","2 48893  97.5777 113.8673 0007993 209.5731 150.5052 15.19637096 80609","2021-059Q","48893","6885.074","94.759","512.442","501.435","0"
"GENERATED VIA SPACETRACK.ORG API","18 SPCS","48893","SPACEBEE-106","PAYLOAD","U","21059Q","2022-12-10 07:23:34","154016","15.19637096","0.0007993","97.5777","113.8673","209.5731","150.5052","0","999","8060","0.00068177","0.0001449","0","3688140","0 SPACEBEE-106","1 48893U 21059Q   22344.30803419  .00014490  00000-0  68177-3 0  9992","2 48893  97.5777 113.8673 0007993 209.5731 150.5052 15.19637096 80609","2021-059Q","48893","6885.074","94.759","512.442","501.435","0"
"GENERATED VIA SPACETRACK.ORG API","18 SPCS","48893","SPACEBEE-106","PAYLOAD","U","21059Q","2022-12-10 20:02:07","384416","15.19654682","0.0007992","97.5778","114.3961","207.4585","152.6228","0","999","8068","0.00070529","0.00015001","0","3688965","0 SPACEBEE-106","1 48893U 21059Q   22344.83480769  .00015001  00000-0  70529-3 0  9992","2 48893  97.5778 114.3961 0007992 207.4585 152.6228 15.19654682 80685","2021-059Q","48893","6885.020","94.758","512.388","501.383","0"
"GENERATED VIA SPACETRACK.ORG API","18 SPCS","48893","SPACEBEE-106","PAYLOAD","U","21059Q","2022-12-11 08:40:40","99872","15.19671352","0.0007983","97.5778","114.9251","205.5499","154.5342","0","999","8076","0.00067875","0.00014439","0","3690504","0 SPACEBEE-106","1 48893U 21059Q   22345.36157523  .00014439  00000-0  67875-3 0  9994","2 48893  97.5778 114.9251 0007983 205.5499 154.5342 15.19671352 80766","2021-059Q","48893","6884.970","94.757","512.331","501.339","0"
"GENERATED VIA SPACETRACK.ORG API","18 SPCS","48893","SPACEBEE-106","PAYLOAD","U","21059Q","2022-12-12 08:22:55","66944","15.19703977","0.000802","97.5777","115.9165","201.9974","158.0917","0","999","8091","0.00070384","0.00014991","0","3694071","0 SPACEBEE-106","1 48893U 21059Q   22346.34924846  .00014991  00000-0  70384-3 0  9995","2 48893  97.5777 115.9165 0008020 201.9974 158.0917 15.19703977 80914","2021-059Q","48893","6884.872","94.755","512.258","501.215","0"
"GENERATED VIA SPACETRACK.ORG API","18 SPCS","48893","SPACEBEE-106","PAYLOAD","U","21059Q","2022-12-13 00:11:04","106688","15.19722193","0.0008044","97.5776","116.5775","199.8318","160.2605","0","999","8101","0.00063159","0.00013449","0","3695626","0 SPACEBEE-106","1 48893U 21059Q   22347.00768642  .00013449  00000-0  63159-3 0  9998","2 48893  97.5776 116.5775 0008044 199.8318 160.2605 15.19722193 81012","2021-059Q","48893","6884.817","94.754","512.220","501.143","0"
"GENERATED VIA SPACETRACK.ORG API","18 SPCS","48893","SPACEBEE-106","PAYLOAD","U","21059Q","2022-12-13 08:05:08","308608","15.19735904","0.0007994","97.5775","116.9081","198.946","161.1478","0","999","8106","0.00074","0.00015781","0","3697190","0 SPACEBEE-106","1 48893U 21059Q   22347.33690172  .00015781  00000-0  74000-3 0  9994","2 48893  97.5775 116.9081 0007994 198.9460 161.1478 15.19735904 81063","2021-059Q","48893","6884.775","94.753","512.144","501.136","0"
"GENERATED VIA SPACETRACK.ORG API","18 SPCS","48893","SPACEBEE-106","PAYLOAD","U","21059Q","2022-12-14 07:47:19","787712","15.197657","0.0008179","97.5771","117.8991","195.04","165.0593","0","999","8121","0.00069308","0.00014787","0","3698638","0 SPACEBEE-106","1 48893U 21059Q   22348.32453458  .00014787  00000-0  69308-3 0  9998","2 48893  97.5771 117.8991 0008179 195.0400 165.0593 15.19765700 81212","2021-059Q","48893","6884.685","94.751","512.181","500.919","0"
"GENERATED VIA SPACETRACK.ORG API","18 SPCS","48893","SPACEBEE-106","PAYLOAD","U","21059Q","2022-12-14 07:47:19","787712","15.197657","0.0008179","97.5771","117.8991","195.04","165.0593","0","999","8121","0.00069308","0.00014787","0","3698874","0 SPACEBEE-106","1 48893U 21059Q   22348.32453458  .00014787  00000-0  69308-3 0  9998","2 48893  97.5771 117.8991 0008179 195.0400 165.0593 15.19765700 81212","2021-059Q","48893","6884.685","94.751","512.181","500.919","0"
"GENERATED VIA SPACETRACK.ORG API","18 SPCS","48893","SPACEBEE-106","PAYLOAD","U","21059Q","2022-12-14 20:25:49","189728","15.19783628","0.0008192","97.577","118.4278","193.0755","167.0269","0","999","8129","0.00073835","0.00015768","0","3702025","0 SPACEBEE-106","1 48893U 21059Q   22348.85126377  .00015768  00000-0  73835-3 0  9993","2 48893  97.5770 118.4278 0008192 193.0755 167.0269 15.19783628 81291","2021-059Q","48893","6884.631","94.750","512.136","500.856","0"
"GENERATED VIA SPACETRACK.ORG API","18 SPCS","48893","SPACEBEE-106","PAYLOAD","U","21059Q","2022-12-15 20:07:57","710496","15.19820922","0.0008214","97.577","119.4192","189.2615","170.8469","0","999","8144","0.00079563","0.00017018","0","3702726","0 SPACEBEE-106","1 48893U 21059Q   22349.83886239  .00017018  00000-0  79563-3 0  9996","2 48893  97.5770 119.4192 0008214 189.2615 170.8469 15.19820922 81444","2021-059Q","48893","6884.518","94.748","512.038","500.728","0"
"GENERATED VIA SPACETRACK.ORG API","18 SPCS","48893","SPACEBEE-106","PAYLOAD","U","21059Q","2022-12-15 21:42:46","184544","15.19823613","0.0008196","97.5771","119.4854","189.4347","170.6735","0","999","8145","0.00079666","0.00017042","0","3702727","0 SPACEBEE-106","1 48893U 21059Q   22349.90470121  .00017042  00000-0  79666-3 0  9994","2 48893  97.5771 119.4854 0008196 189.4347 170.6735 15.19823613 81458","2021-059Q","48893","6884.510","94.748","512.018","500.733","0"
"GENERATED VIA SPACETRACK.ORG API","18 SPCS","48893","SPACEBEE-106","PAYLOAD","U","21059Q","2022-12-15 21:42:46","184544","15.19823613","0.0008196","97.5771","119.4854","189.4347","170.6735","0","999","8145","0.00079666","0.00017042","0","3702749","0 SPACEBEE-106","1 48893U 21059Q   22349.90470121  .00017042  00000-0  79666-3 0  9994","2 48893  97.5771 119.4854 0008196 189.4347 170.6735 15.19823613 81458","2021-059Q","48893","6884.510","94.748","512.018","500.733","0"
"GENERATED VIA SPACETRACK.ORG API","18 SPCS","48893","SPACEBEE-106","PAYLOAD","U","21059Q","2022-12-16 08:46:25","369824","15.19842443","0.0008223","97.5771","119.9481","187.1201","172.9918","0","999","8152","0.00083015","0.00017773","0","3702730","0 SPACEBEE-106","1 48893U 21059Q   22350.36557141  .00017773  00000-0  83015-3 0  9998","2 48893  97.5771 119.9481 0008223 187.1201 172.9918 15.19842443 81522","2021-059Q","48893","6884.453","94.747","511.979","500.657","0"
"GENERATED VIA SPACETRACK.ORG API","18 SPCS","48893","SPACEBEE-106","PAYLOAD","U","21059Q","2022-12-17 08:28:30","827712","15.19874227","0.000825","97.577","120.9397","183.759","176.3584","0","999","8167","0.0007209","0.00015434","0","3705911","0 SPACEBEE-106","1 48893U 21059Q   22351.35313458  .00015434  00000-0  72090-3 0  9992","2 48893  97.5770 120.9397 0008250 183.7590 176.3584 15.19874227 81670","2021-059Q","48893","6884.357","94.745","511.902","500.543","0"
"GENERATED VIA SPACETRACK.ORG API","18 SPCS","48893","SPACEBEE-106","PAYLOAD","U","21059Q","2022-12-17 08:28:30","827712","15.19874227","0.000825","97.577","120.9397","183.759","176.3584","0","999","8167","0.0007209","0.00015434","0","3706072","0 SPACEBEE-106","1 48893U 21059Q   22351.35313458  .00015434  00000-0  72090-3 0  9992","2 48893  97.5770 120.9397 0008250 183.7590 176.3584 15.19874227 81670","2021-059Q","48893","6884.357","94.745","511.902","500.543","0"
"GENERATED VIA SPACETRACK.ORG API","18 SPCS","48893","SPACEBEE-106","PAYLOAD","U","21059Q","2022-12-17 19:32:08","773152","15.19887929","0.0008269","97.5771","121.4028","182.3707","177.749","0","999","8174","0.00069014","0.00014777","0","3707070","0 SPACEBEE-106","1 48893U 21059Q   22351.81399043  .00014777  00000-0  69014-3 0  9998","2 48893  97.5771 121.4028 0008269 182.3707 177.7490 15.19887929 81745","2021-059Q","48893","6884.316","94.744","511.874","500.488","0"
